[Satellite]
VERSION=1.1
NAME=NOAA 12
NICKNAME=NOAA 12
TLE1=1 21263U 91032A   22342.50308251  .00000093  00000+0  56654-4 0  9997
TLE2=2 21263  98.5225 337.5212 0013467 185.4337 174.6699 14.26033653641536
STATUS=2
